{
  "type": "FeatureCollection",
  "features": [
    {
      "type": "Feature",
      "properties": {
        "norad_id": 66589,
        "name": "STARLINK-35447",
        "group": "last-30-days",
        "lat": 34.2910168898641,
        "lon": -72.77618543572571,
        "alt_km": 341.76077864902527,
        "timestamp": "2025-12-04T17:48:38.964326+00:00",
        "meta_object_name": "STARLINK-35447",
        "meta_object_id": "2025-270B",
        "meta_epoch": "2025-12-04T03:52:38.166240",
        "meta_mean_motion": 15.75286516,
        "meta_eccentricity": 0.00020989,
        "meta_inclination": 42.998,
        "meta_ra_of_asc_node": 243.704,
        "meta_arg_of_pericenter": 241.4735,
        "meta_mean_anomaly": 118.5923,
        "meta_ephemeris_type": 0,
        "meta_classification_type": "U",
        "meta_norad_cat_id": 66589,
        "meta_element_set_no": 999,
        "meta_rev_at_epoch": 311,
        "meta_bstar": -0.0038487751,
        "meta_mean_motion_dot": -0.00560228,
        "meta_mean_motion_ddot": 0,
        "tle_line1": "1 66589U 25270B   25338.16155285 -.00560228  00000+0 -38488-2 0  9991",
        "tle_line2": "2 66589  42.9980 243.7040 0002098 241.4735 118.5923 15.75286516  3113"
      },
      "geometry": {
        "type": "Point",
        "coordinates": [
          -72.77618543572571,
          34.2910168898641
        ]
      }
    },
    {
      "type": "Feature",
      "properties": {
        "norad_id": 66590,
        "name": "STARLINK-35429",
        "group": "last-30-days",
        "lat": 33.39977410770595,
        "lon": -74.7737227865255,
        "alt_km": 340.98299796837364,
        "timestamp": "2025-12-04T17:48:38.964337+00:00",
        "meta_object_name": "STARLINK-35429",
        "meta_object_id": "2025-270C",
        "meta_epoch": "2025-12-04T03:53:07.641600",
        "meta_mean_motion": 15.75304786,
        "meta_eccentricity": 0.00015096,
        "meta_inclination": 42.9999,
        "meta_ra_of_asc_node": 243.7061,
        "meta_arg_of_pericenter": 284.7507,
        "meta_mean_anomaly": 75.3195,
        "meta_ephemeris_type": 0,
        "meta_classification_type": "U",
        "meta_norad_cat_id": 66590,
        "meta_element_set_no": 999,
        "meta_rev_at_epoch": 311,
        "meta_bstar": -0.0038568611,
        "meta_mean_motion_dot": -0.00561656,
        "meta_mean_motion_ddot": 0,
        "tle_line1": "1 66590U 25270C   25338.16189400 -.00561656  00000+0 -38569-2 0  9995",
        "tle_line2": "2 66590  42.9999 243.7061 0001509 284.7507  75.3195 15.75304786  3112"
      },
      "geometry": {
        "type": "Point",
        "coordinates": [
          -74.7737227865255,
          33.39977410770595
        ]
      }
    },
    {
      "type": "Feature",
      "properties": {
        "norad_id": 66591,
        "name": "STARLINK-36058",
        "group": "last-30-days",
        "lat": 35.24396084417962,
        "lon": -70.50874002718308,
        "alt_km": 341.4027998617594,
        "timestamp": "2025-12-04T17:48:38.964366+00:00",
        "meta_object_name": "STARLINK-36058",
        "meta_object_id": "2025-270D",
        "meta_epoch": "2025-12-04T02:20:50.002080",
        "meta_mean_motion": 15.75426072,
        "meta_eccentricity": 0.00024767,
        "meta_inclination": 42.9981,
        "meta_ra_of_asc_node": 244.0858,
        "meta_arg_of_pericenter": 274.5012,
        "meta_mean_anomaly": 85.5575,
        "meta_ephemeris_type": 0,
        "meta_classification_type": "U",
        "meta_norad_cat_id": 66591,
        "meta_element_set_no": 999,
        "meta_rev_at_epoch": 299,
        "meta_bstar": -0.0040705358,
        "meta_mean_motion_dot": -0.00593875,
        "meta_mean_motion_ddot": 0,
        "tle_line1": "1 66591U 25270D   25338.09780095 -.00593875  00000+0 -40705-2 0  9998",
        "tle_line2": "2 66591  42.9981 244.0858 0002476 274.5012  85.5575 15.75426072  2997"
      },
      "geometry": {
        "type": "Point",
        "coordinates": [
          -70.50874002718308,
          35.24396084417962
        ]
      }
    },
    {
      "type": "Feature",
      "properties": {
        "norad_id": 66592,
        "name": "STARLINK-36066",
        "group": "last-30-days",
        "lat": 36.080458945329745,
        "lon": -68.38428329435415,
        "alt_km": 340.88309198651314,
        "timestamp": "2025-12-04T17:48:38.964381+00:00",
        "meta_object_name": "STARLINK-36066",
        "meta_object_id": "2025-270E",
        "meta_epoch": "2025-12-04T03:51:39.663936",
        "meta_mean_motion": 15.75283675,
        "meta_eccentricity": 0.00021985,
        "meta_inclination": 42.9992,
        "meta_ra_of_asc_node": 243.6972,
        "meta_arg_of_pericenter": 265.4989,
        "meta_mean_anomaly": 94.5629,
        "meta_ephemeris_type": 0,
        "meta_classification_type": "U",
        "meta_norad_cat_id": 66592,
        "meta_element_set_no": 999,
        "meta_rev_at_epoch": 290,
        "meta_bstar": -0.0029277464,
        "meta_mean_motion_dot": -0.00432621,
        "meta_mean_motion_ddot": 0,
        "tle_line1": "1 66592U 25270E   25338.16087574 -.00432621  00000+0 -29277-2 0  9991",
        "tle_line2": "2 66592  42.9992 243.6972 0002198 265.4989  94.5629 15.75283675  2906"
      },
      "geometry": {
        "type": "Point",
        "coordinates": [
          -68.38428329435415,
          36.080458945329745
        ]
      }
    },
    {
      "type": "Feature",
      "properties": {
        "norad_id": 66593,
        "name": "STARLINK-36031",
        "group": "last-30-days",
        "lat": 36.96210788103953,
        "lon": -65.96973728087227,
        "alt_km": 340.20357812428756,
        "timestamp": "2025-12-04T17:48:38.964391+00:00",
        "meta_object_name": "STARLINK-36031",
        "meta_object_id": "2025-270F",
        "meta_epoch": "2025-12-04T03:51:10.174752",
        "meta_mean_motion": 15.75313834,
        "meta_eccentricity": 0.00020553,
        "meta_inclination": 42.9978,
        "meta_ra_of_asc_node": 243.6952,
        "meta_arg_of_pericenter": 267.9518,
        "meta_mean_anomaly": 92.1116,
        "meta_ephemeris_type": 0,
        "meta_classification_type": "U",
        "meta_norad_cat_id": 66593,
        "meta_element_set_no": 999,
        "meta_rev_at_epoch": 300,
        "meta_bstar": -0.0022282579,
        "meta_mean_motion_dot": -0.00333622,
        "meta_mean_motion_ddot": 0,
        "tle_line1": "1 66593U 25270F   25338.16053443 -.00333622  00000+0 -22283-2 0  9991",
        "tle_line2": "2 66593  42.9978 243.6952 0002055 267.9518  92.1116 15.75313834  3004"
      },
      "geometry": {
        "type": "Point",
        "coordinates": [
          -65.96973728087227,
          36.96210788103953
        ]
      }
    },
    {
      "type": "Feature",
      "properties": {
        "norad_id": 66594,
        "name": "STARLINK-36032",
        "group": "last-30-days",
        "lat": 42.71669266581298,
        "lon": -37.60746464510486,
        "alt_km": 338.90409725506925,
        "timestamp": "2025-12-04T17:48:38.964401+00:00",
        "meta_object_name": "STARLINK-36032",
        "meta_object_id": "2025-270G",
        "meta_epoch": "2025-12-04T03:46:47.463456",
        "meta_mean_motion": 15.77380004,
        "meta_eccentricity": 0.00146576,
        "meta_inclination": 42.9975,
        "meta_ra_of_asc_node": 243.6707,
        "meta_arg_of_pericenter": 280.4782,
        "meta_mean_anomaly": 79.4436,
        "meta_ephemeris_type": 0,
        "meta_classification_type": "U",
        "meta_norad_cat_id": 66594,
        "meta_element_set_no": 999,
        "meta_rev_at_epoch": 281,
        "meta_bstar": 0.0022053405,
        "meta_mean_motion_dot": 0.00395318,
        "meta_mean_motion_ddot": 0,
        "tle_line1": "1 66594U 25270G   25338.15749379  .00395318  00000+0  22053-2 0  9994",
        "tle_line2": "2 66594  42.9975 243.6707 0014657 280.4782  79.4436 15.77380004  2810"
      },
      "geometry": {
        "type": "Point",
        "coordinates": [
          -37.60746464510486,
          42.71669266581298
        ]
      }
    },
    {
      "type": "Feature",
      "properties": {
        "norad_id": 66595,
        "name": "STARLINK-35711",
        "group": "last-30-days",
        "lat": 38.49226773526801,
        "lon": -61.25808693444641,
        "alt_km": 339.09429022264703,
        "timestamp": "2025-12-04T17:48:38.964412+00:00",
        "meta_object_name": "STARLINK-35711",
        "meta_object_id": "2025-270H",
        "meta_epoch": "2025-12-04T05:21:30.685248",
        "meta_mean_motion": 15.75230098,
        "meta_eccentricity": 0.00020324,
        "meta_inclination": 42.9987,
        "meta_ra_of_asc_node": 243.3051,
        "meta_arg_of_pericenter": 265.2073,
        "meta_mean_anomaly": 94.8564,
        "meta_ephemeris_type": 0,
        "meta_classification_type": "U",
        "meta_norad_cat_id": 66595,
        "meta_element_set_no": 999,
        "meta_rev_at_epoch": 312,
        "meta_bstar": -2.0104523e-05,
        "meta_mean_motion_dot": -3.592e-05,
        "meta_mean_motion_ddot": 0,
        "tle_line1": "1 66595U 25270H   25338.22327182 -.00003592  00000+0 -20105-4 0  9997",
        "tle_line2": "2 66595  42.9987 243.3051 0002032 265.2073  94.8564 15.75230098  3124"
      },
      "geometry": {
        "type": "Point",
        "coordinates": [
          -61.25808693444641,
          38.49226773526801
        ]
      }
    }
  ]
}